IRIDIUM 112             
1 41925U 17003J   25281.47850062  .00000101  00000+0  28843-4 0  9992
2 41925  86.4032 193.4465 0002232  88.1919 271.9532 14.34218124457198
IRIDIUM 111             
1 41926U 17003K   25281.46581441  .00000130  00000+0  39417-4 0  9995
2 41926  86.4038 193.5164 0002301  81.9679 278.1778 14.34217154457174
IRIDIUM 113             
1 42803U 17039A   25281.86438957  .00000179  00000+0  56686-4 0  9996
2 42803  86.3939  67.2096 0002166  95.7427 264.4016 14.34217102435163
IRIDIUM 123             
1 42804U 17039B   25281.48725556  .00000032  00000+0  43468-5 0  9992
2 42804  86.3913  98.8703 0002328  82.7514 277.3946 14.34217511433879
IRIDIUM 120             
1 42805U 17039C   25281.50920166  .00000379  00000+0  12825-3 0  9995
2 42805  86.3930  67.1732 0001919  83.9799 276.1615 14.34217288435102
IRIDIUM 115             
1 42806U 17039D   25281.86361857  .00000569  00000+0  16327-3 0  9993
2 42806  86.4466  67.1192 0002434  77.0285 283.1188 14.43279880438017
IRIDIUM 118             
1 42807U 17039E   25281.93758002  .00000013  00000+0 -25218-5 0  9990
2 42807  86.3914  98.6812 0002199  93.8025 266.3422 14.34217486433933
IRIDIUM 117             
1 42808U 17039F   25281.95660774  .00000060  00000+0  14347-4 0  9992
2 42808  86.3911  98.6330 0002282  85.9630 274.1826 14.34217666433961
